NORAD_CAT_ID,OBJECT_NAME,OBJECT_TYPE,EPOCH,MEAN_MOTION,ECCENTRICITY,INCLINATION,RA_OF_ASC_NODE,ARG_OF_PERICENTER,MEAN_ANOMALY,BSTAR,MEAN_MOTION_DOT,MEAN_MOTION_DDOT,TLE_LINE0,TLE_LINE1,TLE_LINE2,SEMIMAJOR_AXIS,PERIOD,APOGEE,PERIGEE,DECAYED
53038.0,STARLINK-4156,PAYLOAD,2024-07-23 08:48:21,15.08834598,0.0001303,53.2158,222.1394,97.6611,262.4529,6.9737e-05,8.22e-06,0.0,0 STARLINK-4156,1 53038U 22076BE  24205.36691399  .00000822  00000-0  69737-4 0  9993,2 53038  53.2158 222.1394 0001303  97.6611 262.4529 15.08834598113865,6917.897,95.438,540.663,538.86,0.0
53038.0,STARLINK-4156,PAYLOAD,2024-07-24 10:14:31,15.08844642,0.0001298,53.2157,217.3816,91.2708,268.8433,4.722e-05,4.64e-06,0.0,0 STARLINK-4156,1 53038U 22076BE  24206.42674887  .00000464  00000-0  47220-4 0  9999,2 53038  53.2157 217.3816 0001298  91.2708 268.8433 15.08844642114023,6917.866,95.437,540.629,538.833,0.0
53038.0,STARLINK-4156,PAYLOAD,2024-07-25 06:54:31,15.08844367,0.0001303,53.2158,213.5163,83.9247,276.1894,0.00013755,1.902e-05,0.0,0 STARLINK-4156,1 53038U 22076BE  24207.28786536  .00001902  00000-0  13755-3 0  9992,2 53038  53.2158 213.5163 0001303  83.9247 276.1894 15.08844367113699,6917.867,95.437,540.633,538.831,0.0
53038.0,STARLINK-4156,PAYLOAD,2024-07-25 10:05:17,15.08845489,0.0001314,53.2158,212.921,83.7152,276.3989,0.00014396,2.004e-05,0.0,0 STARLINK-4156,1 53038U 22076BE  24207.42034435  .00002004  00000-0  14396-3 0  9998,2 53038  53.2158 212.9210 0001314  83.7152 276.3989 15.08845489113716,6917.864,95.437,540.638,538.82,0.0
53038.0,STARLINK-4156,PAYLOAD,2024-07-26 05:09:55,15.08842306,0.0001249,53.2152,209.3523,89.7286,270.385,2.7084e-05,1.43e-06,0.0,0 STARLINK-4156,1 53038U 22076BE  24208.21522684  .00000143  00000-0  27084-4 0  9995,2 53038  53.2152 209.3523 0001249  89.7286 270.3850 15.08842306114298,6917.873,95.437,540.602,538.874,0.0
53038.0,STARLINK-4156,PAYLOAD,2024-07-26 09:56:04,15.08842216,0.0001356,53.2158,208.4606,102.5034,257.611,3.0781e-05,2.02e-06,0.0,0 STARLINK-4156,1 53038U 22076BE  24208.41394580  .00000202  00000-0  30781-4 0  9993,2 53038  53.2158 208.4606 0001356 102.5034 257.6110 15.08842216113869,6917.874,95.437,540.677,538.801,0.0
53038.0,STARLINK-4156,PAYLOAD,2024-07-27 05:00:42,15.08841444,0.0001447,53.216,204.8925,91.4396,268.6762,-6.1545e-06,-3.86e-06,0.0,0 STARLINK-4156,1 53038U 22076BE  24209.20882667 -.00000386  00000-0 -61545-5 0  9997,2 53038  53.2160 204.8925 0001447  91.4396 268.6762 15.08841444113984,6917.876,95.437,540.742,538.74,0.0
53038.0,STARLINK-4156,PAYLOAD,2024-07-27 09:46:52,15.08841012,0.0001445,53.2159,204.0005,91.0313,269.0844,-1.0111e-05,-4.49e-06,0.0,0 STARLINK-4156,1 53038U 22076BE  24209.40754677 -.00000449  00000-0 -10111-4 0  9990,2 53038  53.2159 204.0005 0001445  91.0313 269.0844 15.08841012114478,6917.877,95.437,540.742,538.743,0.0
53038.0,STARLINK-4156,PAYLOAD,2024-07-27 16:08:24,15.0884368,0.0001443,53.216,202.8113,90.5289,269.5868,1.2015e-05,-9.7e-07,0.0,0 STARLINK-4156,1 53038U 22076BE  24209.67250402 -.00000097  00000-0  12015-4 0  9999,2 53038  53.2160 202.8113 0001443  90.5289 269.5868 15.08843680114058,6917.869,95.437,540.732,538.736,0.0
53038.0,STARLINK-4156,PAYLOAD,2024-07-28 04:51:30,15.08833035,0.0001389,53.2161,200.4328,88.4551,271.6601,1.4945e-06,-2.64e-06,0.0,0 STARLINK-4156,1 53038U 22076BE  24210.20243177 -.00000264  00000-0  14945-5 0  9992,2 53038  53.2161 200.4328 0001389  88.4551 271.6601 15.08833035114599,6917.902,95.438,540.728,538.806,0.0
53038.0,STARLINK-4156,PAYLOAD,2024-07-28 22:20:44,15.08836919,0.0001455,53.2166,197.1627,99.2786,260.8371,4.9008e-05,4.92e-06,0.0,0 STARLINK-4156,1 53038U 22076BE  24210.93106937  .00000492  00000-0  49008-4 0  9993,2 53038  53.2166 197.1627 0001455  99.2786 260.8371 15.08836919114242,6917.89,95.438,540.761,538.748,0.0
53038.0,STARLINK-4156,PAYLOAD,2024-07-29 04:42:17,15.0883478,0.000145,53.2167,195.9729,98.2606,261.855,7.8019e-06,-1.64e-06,0.0,0 STARLINK-4156,1 53038U 22076BE  24211.19603302 -.00000164  00000-0  78019-5 0  9992,2 53038  53.2167 195.9729 0001450  98.2606 261.8550 15.08834780114285,6917.896,95.438,540.764,538.758,0.0
53038.0,STARLINK-4156,PAYLOAD,2024-07-29 15:49:58,15.08840427,0.0001432,53.217,193.8912,95.0922,265.0234,5.0978e-05,5.23e-06,0.0,0 STARLINK-4156,1 53038U 22076BE  24211.65970907  .00000523  00000-0  50978-4 0  9992,2 53038  53.2170 193.8912 0001432  95.0922 265.0234 15.08840427114815,6917.879,95.438,540.735,538.753,0.0
53038.0,STARLINK-4156,PAYLOAD,2024-07-30 06:08:27,15.08838701,0.0001375,53.2166,191.2138,88.6165,271.4985,6.3888e-05,7.29e-06,0.0,0 STARLINK-4156,1 53038U 22076BE  24212.25587116  .00000729  00000-0  63888-4 0  9997,2 53038  53.2166 191.2138 0001375  88.6165 271.4985 15.08838701114440,6917.884,95.438,540.701,538.798,0.0
53038.0,STARLINK-4156,PAYLOAD,2024-07-30 22:02:17,15.08847504,0.0001428,53.2158,188.2384,80.0868,280.0285,0.00012833,1.755e-05,0.0,0 STARLINK-4156,1 53038U 22076BE  24212.91826273  .00001755  00000-0  12833-3 0  9993,2 53038  53.2158 188.2384 0001428  80.0868 280.0285 15.08847504115008,6917.857,95.437,540.71,538.735,0.0
53038.0,STARLINK-4156,PAYLOAD,2024-07-31 05:59:15,15.0883207,0.0001457,53.2166,186.7536,84.7435,275.3724,7.3174e-06,-1.72e-06,0.0,0 STARLINK-4156,1 53038U 22076BE  24213.24947918 -.00000172  00000-0  73174-5 0  9990,2 53038  53.2166 186.7536 0001457  84.7435 275.3724 15.08832070114592,6917.905,95.438,540.778,538.762,0.0
53038.0,STARLINK-4156,PAYLOAD,2024-07-31 21:53:05,15.08839118,0.0001528,53.2162,183.7808,85.9244,274.1922,5.8332e-05,6.4e-06,0.0,0 STARLINK-4156,1 53038U 22076BE  24213.91187460  .00000640  00000-0  58332-4 0  9999,2 53038  53.2162 183.7808 0001528  85.9244 274.1922 15.08839118115157,6917.883,95.438,540.805,538.691,0.0
53038.0,STARLINK-4156,PAYLOAD,2024-08-01 04:14:38,15.08842007,0.000144,53.2152,182.5899,88.6503,271.4654,8.2622e-05,1.027e-05,0.0,0 STARLINK-4156,1 53038U 22076BE  24214.17683206  .00001027  00000-0  82622-4 0  9996,2 53038  53.2152 182.5899 0001440  88.6503 271.4654 15.08842007114730,6917.874,95.437,540.735,538.743,0.0
53038.0,STARLINK-4156,PAYLOAD,2024-08-01 21:43:52,15.08837974,0.000187,53.2154,179.319,84.2763,275.8442,0.0001679,2.385e-05,0.0,0 STARLINK-4156,1 53038U 22076BE  24214.90547129  .00002385  00000-0  16790-3 0  9990,2 53038  53.2154 179.3190 0001870  84.2763 275.8442 15.08837974114849,6917.887,95.438,541.045,538.458,0.0
53038.0,STARLINK-4156,PAYLOAD,2024-08-02 04:05:25,15.08838171,0.000146,53.2154,178.1292,88.1063,272.0096,9.006e-05,1.146e-05,0.0,0 STARLINK-4156,1 53038U 22076BE  24215.17043425  .00001146  00000-0  90060-4 0  9997,2 53038  53.2154 178.1292 0001460  88.1063 272.0096 15.08838171115340,6917.886,95.438,540.761,538.741,0.0
53038.0,STARLINK-4156,PAYLOAD,2024-08-02 07:16:11,15.08838711,0.0001534,53.2162,177.5347,88.716,271.4008,8.6557e-05,1.09e-05,0.0,0 STARLINK-4156,1 53038U 22076BE  24215.30291443  .00001090  00000-0  86557-4 0  9991,2 53038  53.2162 177.5347 0001534  88.7160 271.4008 15.08838711114906,6917.884,95.438,540.811,538.688,0.0
53038.0,STARLINK-4156,PAYLOAD,2024-08-02 15:13:06,15.08846268,0.0001425,53.216,176.0479,90.7654,269.3501,0.00013201,1.814e-05,0.0,0 STARLINK-4156,1 53038U 22076BE  24215.63410827  .00001814  00000-0  13201-3 0  9995,2 53038  53.2160 176.0479 0001425  90.7654 269.3501 15.08846268115411,6917.861,95.437,540.712,538.74,0.0
53038.0,STARLINK-4156,PAYLOAD,2024-08-03 03:56:12,15.08838841,0.0001598,53.2175,173.6691,100.7804,259.3369,5.7202e-06,-1.97e-06,0.0,0 STARLINK-4156,1 53038U 22076BE  24216.16403648 -.00000197  00000-0  57202-5 0  9992,2 53038  53.2175 173.6691 0001598 100.7804 259.3369 15.08838841115493,6917.884,95.438,540.854,538.643,0.0
53038.0,STARLINK-4156,PAYLOAD,2024-08-03 07:06:58,15.08840836,0.0001563,53.2171,173.0746,99.3627,260.7542,3.4608e-05,2.63e-06,0.0,0 STARLINK-4156,1 53038U 22076BE  24216.29651418  .00000263  00000-0  34608-4 0  9993,2 53038  53.2171 173.0746 0001563  99.3627 260.7542 15.08840836115050,6917.878,95.438,540.824,538.662,0.0
53038.0,STARLINK-4156,PAYLOAD,2024-08-04 13:19:17,15.08853709,0.0001253,53.2158,167.426,88.9224,271.1911,0.00016596,2.355e-05,0.0,0 STARLINK-4156,1 53038U 22076BE  24217.55506319  .00002355  00000-0  16596-3 0  9991,2 53038  53.2158 167.4260 0001253  88.9224 271.1911 15.08853709115707,6917.838,95.437,540.57,538.837,0.0
53038.0,STARLINK-4156,PAYLOAD,2024-08-04 21:16:14,15.08835623,0.0001637,53.2153,165.9387,106.4591,253.6581,7.8615e-05,9.63e-06,0.0,0 STARLINK-4156,1 53038U 22076BE  24217.88627606  .00000963  00000-0  78615-4 0  9994,2 53038  53.2153 165.9387 0001637 106.4591 253.6581 15.08835623115752,6917.894,95.438,540.891,538.626,0.0
53038.0,STARLINK-4156,PAYLOAD,2024-08-05 13:10:04,15.08861908,0.0001365,53.2161,162.9635,84.5013,275.6135,0.00041308,6.296e-05,0.0,0 STARLINK-4156,1 53038U 22076BE  24218.54866237  .00006296  00000-0  41308-3 0  9996,2 53038  53.2161 162.9635 0001365  84.5013 275.6135 15.08861908115852,6917.813,95.436,540.623,538.734,0.0
53038.0,STARLINK-4156,PAYLOAD,2024-08-06 03:28:34,15.08810424,0.0001568,53.2172,160.2928,98.9346,261.1824,-0.00050338,-8.284e-05,0.0,0 STARLINK-4156,1 53038U 22076BE  24219.14484845 -.00008284  00000-0 -50338-3 0  9998,2 53038  53.2172 160.2928 0001568  98.9346 261.1824 15.08810424115945,6917.971,95.439,540.921,538.751,0.0
53038.0,STARLINK-4156,PAYLOAD,2024-08-07 01:43:59,15.0884166,0.0001517,53.2165,156.1276,92.7164,267.4001,0.0010721,0.00016816,0.0,0 STARLINK-4156,1 53038U 22076BE  24220.07221295  .00016816  00000-0  10721-2 0  9999,2 53038  53.2165 156.1276 0001517  92.7164 267.4001 15.08841660116089,6917.875,95.437,540.79,538.691,0.0
53038.0,STARLINK-4156,PAYLOAD,2024-08-08 04:45:31,15.08879193,0.000152,53.2154,151.0718,91.9208,268.1958,0.0019251,0.00030516,0.0,0 STARLINK-4156,1 53038U 22076BE  24221.19828315  .00030516  00000-0  19251-2 0  9999,2 53038  53.2154 151.0718 0001520  91.9208 268.1958 15.08879193115794,6917.761,95.435,540.677,538.574,0.0
